[{"OBJECT_NAME":"STARLINK-5546","OBJECT_ID":"2023-021E","EPOCH":"2026-03-09T22:00:01.999584","MEAN_MOTION":14.98339812,"ECCENTRICITY":0.00032442,"INCLINATION":70.0011,"RA_OF_ASC_NODE":203.8885,"ARG_OF_PERICENTER":275.2672,"MEAN_ANOMALY":24.8673,"EPHEMERIS_TYPE":0,"CLASSIFICATION_TYPE":"U","NORAD_CAT_ID":55632,"ELEMENT_SET_NO":999,"REV_AT_EPOCH":570,"BSTAR":-0.0014411307,"MEAN_MOTION_DOT":-0.00017251,"MEAN_MOTION_DDOT":0},{"OBJECT_NAME":"IRIDIUM 33 DEB","OBJECT_ID":"1997-051PF","EPOCH":"2026-03-08T20:08:48.628608","MEAN_MOTION":15.0410284,"ECCENTRICITY":0.00301759,"INCLINATION":86.2075,"RA_OF_ASC_NODE":10.7469,"ARG_OF_PERICENTER":217.121,"MEAN_ANOMALY":142.7938,"EPHEMERIS_TYPE":0,"CLASSIFICATION_TYPE":"U","NORAD_CAT_ID":35080,"ELEMENT_SET_NO":999,"REV_AT_EPOCH":70973,"BSTAR":0.01054144,"MEAN_MOTION_DOT":0.00150308,"MEAN_MOTION_DDOT":0}]
